HAWK-7A                 
1 56191U 23054P   26095.69817200  .00005557  00000+0  21480-3 0  9990
2 56191  97.2788 344.8818 0001498 323.3662  36.7475 15.26628512165965
HAWK-7B                 
1 56193U 23054R   26095.63254568  .00008138  00000+0  31336-3 0  9997
2 56193  97.2816 343.0548 0001275   3.5248 356.6000 15.26613206165951
HAWK-7C                 
1 56200U 23054Y   26095.63244045  .00007926  00000+0  30530-3 0  9994
2 56200  97.2790 343.8465 0000922 337.2989  22.8209 15.26609579165955
