[{"OBJECT_NAME":"HAWK-7A","OBJECT_ID":"2023-054P","EPOCH":"2026-04-05T16:45:22.060800","MEAN_MOTION":15.26628512,"ECCENTRICITY":0.0001498,"INCLINATION":97.2788,"RA_OF_ASC_NODE":344.8818,"ARG_OF_PERICENTER":323.3662,"MEAN_ANOMALY":36.7475,"EPHEMERIS_TYPE":0,"CLASSIFICATION_TYPE":"U","NORAD_CAT_ID":56191,"ELEMENT_SET_NO":999,"REV_AT_EPOCH":16596,"BSTAR":0.0002148,"MEAN_MOTION_DOT":5.557e-5,"MEAN_MOTION_DDOT":0},{"OBJECT_NAME":"HAWK-7B","OBJECT_ID":"2023-054R","EPOCH":"2026-04-05T15:10:51.946752","MEAN_MOTION":15.26613206,"ECCENTRICITY":0.0001275,"INCLINATION":97.2816,"RA_OF_ASC_NODE":343.0548,"ARG_OF_PERICENTER":3.5248,"MEAN_ANOMALY":356.6,"EPHEMERIS_TYPE":0,"CLASSIFICATION_TYPE":"U","NORAD_CAT_ID":56193,"ELEMENT_SET_NO":999,"REV_AT_EPOCH":16595,"BSTAR":0.00031336,"MEAN_MOTION_DOT":8.138e-5,"MEAN_MOTION_DDOT":0},{"OBJECT_NAME":"HAWK-7C","OBJECT_ID":"2023-054Y","EPOCH":"2026-04-05T15:10:42.854880","MEAN_MOTION":15.26609579,"ECCENTRICITY":9.22e-5,"INCLINATION":97.279,"RA_OF_ASC_NODE":343.8465,"ARG_OF_PERICENTER":337.2989,"MEAN_ANOMALY":22.8209,"EPHEMERIS_TYPE":0,"CLASSIFICATION_TYPE":"U","NORAD_CAT_ID":56200,"ELEMENT_SET_NO":999,"REV_AT_EPOCH":16595,"BSTAR":0.0003053,"MEAN_MOTION_DOT":7.926e-5,"MEAN_MOTION_DDOT":0}]
